#aV2016  4 13  0  0  0.00000000     288 DD+AD WGS84 FIT  NGA
## 1892 259200.00000000   300.00000000 57491 0.0000000000000
+   31     1  2  3  5  6  7  8  9 10 11 12 13 14 15 16 17 18
+         19 20 21 22 23 24 25 26 27 28 29 30 31 32  0  0  0
+          0  0  0  0  0  0  0  0  0  0  0  0  0  0  0  0  0
+          0  0  0  0  0  0  0  0  0  0  0  0  0  0  0  0  0
+          0  0  0  0  0  0  0  0  0  0  0  0  0  0  0  0  0
++         2  2  2  2  2  2  2  2  2  2  2  2  2  2  2  2  2
++         2  2  2  2  2  2  2  2  2  2  2  2  2  2  0  0  0
++         0  0  0  0  0  0  0  0  0  0  0  0  0  0  0  0  0
++         0  0  0  0  0  0  0  0  0  0  0  0  0  0  0  0  0
++         0  0  0  0  0  0  0  0  0  0  0  0  0  0  0  0  0
%c cc cc ccc ccc cccc cccc cccc cccc ccccc ccccc ccccc ccccc
%c cc cc ccc ccc cccc cccc cccc cccc ccccc ccccc ccccc ccccc
%f  0.0000000  0.000000000  0.00000000000  0.000000000000000
%f  0.0000000  0.000000000  0.00000000000  0.000000000000000
%i    0    0    0    0      0      0      0      0         0
%i    0    0    0    0      0      0      0      0         0
/*      NGA, ST. LOUIS,MO.                                  
/*   EPHEMERIS COMPUTED FROM 2 DAYS OF DATA                 
/*   EPOCHA v2.4 SMOOTHER                                   
/*   G1762 IERS2010 SATAF SATAPC                            
*  2016  4 13 10 55  0.00000000
P  1 -14042.416699  21187.926833   7206.280541     17.203350                    
V  1    943.207868  -9664.230404  30166.949422      0.011360                    
P  2  16308.297101  -1625.983718 -20393.703059    597.269555                    
V  2  -7971.156946  25860.551466  -8658.121930     -0.018230                    
P  3 -17367.284837  13209.631707 -15145.705373    -46.994526                    
V  3 -19336.897293    697.285584  22764.134492     -0.041029                    
P  5  26465.549233  -2408.831835  -2313.927826   -129.332273                    
V  5  -2343.241438   3476.381030 -31126.705277      0.031957                    
P  6   9711.962201  13935.232469 -20405.010300    175.062749                    
V  6 -10484.224840  23737.965216  11213.733039      0.056623                    
P  7  -4293.833118  24669.137054   8356.096043    460.337358                    
V  7  -6658.035295   8611.350583 -29695.211149     -0.020113                    
P  8 -15106.473979   4886.463437  21351.852697    -31.208377                    
V  8 -16379.343162 -21435.793836  -6667.478758     -0.014728                    
P  9   3706.322558  21620.665347 -14981.092795    109.027228                    
V  9 -13552.607964 -13508.786522 -22890.604411      0.074487                    
P 10 -13810.326768 -11738.305946  19452.263613      3.097274                    
V 10  24203.568376  -4825.004809  14222.837003     -0.096638                    
P 11 -11675.521347  18657.384829  14284.393553   -640.580706                    
V 11  -3404.977088 -19355.504134  21714.326609     -0.014426                    
P 12  20521.425075 -10503.067152 -13118.141772    376.138571                    
V 12  16565.278883    126.188086  26274.698461      0.013914                    
P 13  17921.376588   4426.523013  18929.035995    -10.587554                    
V 13  11663.320687  21379.245519 -16016.803677     -0.027121                    
P 14 -15432.942179 -21685.422336  -1086.018488     -8.098297                    
V 14   1207.399749  -2825.158456  31690.537942     -0.021274                    
P 15  12990.668262  -9104.470599  21191.443811   -306.251430                    
V 15  18035.005769  20498.862481  -1890.290710     -0.017398                    
P 16 -26630.816603     21.937759  -2891.652031    -24.907888                    
V 16   3382.229433  -1748.482823 -31874.815444      0.027763                    
P 17  14519.608982  22317.017558   1744.898662   -203.066865                    
V 17  -2805.065632   -206.750520  31865.371388     -0.003120                    
P 18   -970.156628 -16268.846480  21495.939312    504.188186                    
V 18  25892.073637  -4158.887834  -2296.823637      0.041577                    
P 19  18272.210044  16732.785748  -9252.459986   -525.610652                    
V 19   4177.393382  11015.258299  29270.469382     -0.000675                    
P 20  19985.621716 -13283.796943  11284.511030    405.675869                    
V 20  14983.423917    -46.978576 -26190.099283      0.024582                    
P 21   -200.136351 -24097.727730  11616.352122   -518.879031                    
V 21   7649.703060 -11860.407937 -26437.212016     -0.014828                    
P 22 -24778.913592   8249.331694  -5105.667920    363.471593                    
V 22  -7327.484006  -2548.111137  29881.074464     -0.073391                    
P 23  -6471.522323  15448.702561 -20332.732013   -169.178021                    
V 23 -17336.016441 -19934.258968  -9979.326915     -0.017335                    
P 24  15015.106841 -19211.434834  10234.423866    -15.422040                    
V 24  -1847.652375  13365.836764  27836.287952     -0.005730                    
P 25   9099.466690 -14919.948353 -20060.689982   -152.226319                    
V 25  25110.478713  -2544.274701  13550.844794     -0.070748                    
P 26 -22810.292995  -5425.212066 -12529.039794   -328.752573                    
V 26  15371.501024  -4612.923772 -25944.912188     -0.136097                    
P 27 -19640.799687  -6245.581099  16819.345010     81.750514                    
V 27 -12066.911205 -17638.740306 -20446.448826      0.038875                    
P 28  11705.187070  12853.909687  20722.448888    515.874327                    
V 28 -24728.200347   2257.336622  12923.054535      0.026440                    
P 29    -63.462286 -20277.766935 -17164.586827    656.862057                    
V 29  13658.441782  17005.779902 -20078.259735      0.002061                    
P 30   2977.318533  20645.026736  16378.485739    116.218158                    
V 30 -10942.953507  17900.892936 -20650.554995      0.035186                    
P 31 -11012.267183 -11117.785880 -21302.385302    273.952332                    
V 31  11654.489637 -24724.194292   7199.414162     -0.017929                    
P 32 -17023.629434 -20371.076950   -902.896522      5.884157                    
V 32   1502.699738  -2667.473282  31708.951843     -0.030351                    
EOF
